STARLINK-1722           
1 46361U 20062AN  23034.18173692  .00007310  00000+0  50904-3 0  9990
2 46361  53.0553   6.6543 0001351  92.9335 267.1809 15.06408136134711
STARLINK-1726           
1 46362U 20062AP  23034.09422137  .00002806  00000+0  20717-3 0  9996
2 46362  53.0531   7.0657 0001548  99.2323 260.8841 15.06401071134711
STARLINK-1739           
1 46363U 20062AQ  23034.08590133  .00000677  00000+0  64305-4 0  9994
2 46363  53.0565   7.0807 0001423  87.7014 272.4138 15.06404822134688
STARLINK-1763           
1 46364U 20062AR  23034.28779075  .00007533  00000+0  52382-3 0  9990
2 46364  53.0563 346.6948 0001438  96.1266 263.9887 15.06417172135010
STARLINK-1550           
1 46365U 20062AS  23033.33491685  .00002781  00000+0  20553-3 0  9999
2 46365  53.0534  10.4717 0001572  96.3819 263.7349 15.06403749134570
STARLINK-1651           
1 46366U 20062AT  23033.32386313  .00000450  00000+0  49083-4 0  9991
2 46366  53.0535  10.5234 0001492  99.1552 260.9606 15.06399089134591
STARLINK-1658           
1 46368U 20062AV  23033.38880349  .00000495  00000+0  52156-4 0  9991
2 46368  53.0571  35.2065 0001615 103.1894 256.9276 15.06397091134264
STARLINK-1670           
1 46370U 20062AX  23034.28173837  .00001638  00000+0  12883-3 0  9993
2 46370  53.0577  31.2158 0001288  94.1188 265.9948 15.06405262134393
STARLINK-1688           
1 46371U 20062AY  23034.00898326 -.00001728  00000+0 -97135-4 0  9997
2 46371  53.0519  32.4485 0001403  99.2111 260.9037 15.06401118134353
STARLINK-1689           
1 46372U 20062AZ  23034.34993149  .00001028  00000+0  87883-4 0  9994
2 46372  53.0562  50.9127 0001498  95.3757 264.7403 15.06401416134122
STARLINK-1711           
1 46374U 20062BB  23034.13440515 -.00000961  00000+0 -46793-4 0  9999
2 46374  53.0558 341.5574 0001309  81.1339 278.9797 15.05585663135067
STARLINK-1724           
1 46375U 20062BC  23034.17899590  .00004277  00000+0  30579-3 0  9991
2 46375  53.0554   6.6697 0001350  97.0584 263.0558 15.06408160134722
STARLINK-1742           
1 46376U 20062BD  23033.33123168  .00001267  00000+0  10393-3 0  9998
2 46376  53.0532  10.4885 0001606 101.1067 259.0102 15.06403070134598
STARLINK-1758           
1 46380U 20062BH  23034.29280015  .00000827  00000+0  74387-4 0  9999
2 46380  53.0560  31.1768 0001426 102.7386 257.3762 15.06401677134397
STARLINK-1769           
1 46382U 20062BK  23034.27482955  .00009717  00000+0  67006-3 0  9992
2 46382  53.0547   6.2511 0001417  84.2137 275.9013 15.06413420134711
STARLINK-1770           
1 46383U 20062BL  23034.06243942 -.00002206  00000+0 -12927-3 0  9991
2 46383  53.0520  52.2086 0001466 100.2760 259.8394 15.06383587134078
STARLINK-1771           
1 46384U 20062BM  23034.39784743 -.00000474  00000+0 -12920-4 0  9996
2 46384  53.0568  50.6876 0001725 109.4628 250.6547 15.06404254134122
GAOFEN 11-2             
1 46396U 20064A   23033.38041014  .00016106  00000+0  68182-3 0  9993
2 46396  97.3961 151.7612 0001774 130.9639 313.9227 15.23255721134130
JILIN-01 GAOFEN 3B      
1 46454U 20065A   23034.25756100  .00006253  00000+0  34967-3 0  9991
2 46454  97.4167  85.6404 0014317 158.5345 287.5860 15.13738742131522
JILIN-01 GAOFEN 3C      
1 46455U 20065B   23034.30902843  .00006133  00000+0  34297-3 0  9998
2 46455  97.4118  85.2029 0012867 172.8965 254.6419 15.13760299131531
JILIN-01 GAOFEN 3D      
1 46456U 20065C   23034.29733106  .00006057  00000+0  33882-3 0  9995
2 46456  97.4214  86.2882 0012072 173.5740 245.0855 15.13763958131537
JILIN-01 GAOFEN 3E      
1 46457U 20065D   23034.31389069  .00005963  00000+0  33389-3 0  9991
2 46457  97.4178  85.7918 0012347 177.1238 250.2210 15.13729925131537
JILIN-01 GAOFEN 3F      
1 46458U 20065E   23034.56405340  .00005723  00000+0  32046-3 0  9993
2 46458  97.4103  85.2916 0013016 166.1316 298.8555 15.13739879131571
JILIN-01 GAOFEN 3G      
1 46459U 20065F   23034.28828950  .00006218  00000+0  34766-3 0  9990
2 46459  97.4229  86.4676 0013989 172.7340 251.7005 15.13750008131537
JILIN-01 GAOFEN 3H      
1 46460U 20065G   23034.28380003  .00005798  00000+0  32484-3 0  9991
2 46460  97.4115  85.1946 0013035 169.4218 255.0145 15.13714356131536
JILIN-01 GAOFEN 3I      
1 46461U 20065H   23034.27454233  .00006224  00000+0  34808-3 0  9995
2 46461  97.4212  86.2767 0013713 162.0702 262.6101 15.13742446131535
JILIN-01 GAOFEN 3J      
1 46462U 20065J   23034.26683961  .00006343  00000+0  35473-3 0  9998
2 46462  97.4167  85.7390 0012799 166.5786 258.2048 15.13748965131538
HAIYANG-2C              
1 46469U 20066A   23032.84121261 -.00000105  00000+0 -21773-4 0  9999
2 46469  65.9977  41.0697 0004600 266.3922  93.6573 13.83378646119464
HJ-2A                   
1 46478U 20067A   23031.02432661 -.00000985  00000+0 -13433-3 0  9997
2 46478  97.9788 115.2894 0000779  73.7952  99.5788 14.76447984126284
HJ-2B                   
1 46479U 20067B   23031.04716543  .00001799  00000+0  26584-3 0  9997
2 46479  97.9786 115.6546 0001105  93.1650  16.6499 14.76446045126293
GONETS-M 17             
1 46486U 20068A   23034.45153654  .00000024  00000+0  10000-3 0  9998
2 46486  82.4979  32.4852 0022888 194.3780 165.6654 12.42883834106589
GONETS-M 18             
1 46487U 20068B   23034.42132576  .00000024  00000+0  10000-3 0  9996
2 46487  82.4927  32.0983 0019550 191.5559 168.5075 12.42868684106573
GONETS-M 19             
1 46488U 20068C   23034.31422303  .00000024  00000+0  10000-3 0  9995
2 46488  82.4962  32.3540 0013511 205.8130 154.2277 12.42875420106572
MEZNSAT                 
1 46489U 20068D   23033.42956253  .00008738  00000+0  55807-3 0  9997
2 46489  97.7534 341.5220 0015913 207.3219 152.7173 15.08800307128883
YARILO 1                
1 46490U 20068E   23033.42494949  .00008570  00000+0  54050-3 0  9991
2 46490  97.7519 341.6837 0016611 205.9297 154.1096 15.09256391128899
YARILO 2                
1 46491U 20068F   23033.37137525  .00007745  00000+0  49220-3 0  9996
2 46491  97.7614 341.4759 0015611 212.9810 147.0445 15.09026915128879
LACUNASAT-3             
1 46492U 20068G   23033.36360535  .00010009  00000+0  62726-3 0  9998
2 46492  97.7532 341.6082 0015268 208.6261 151.4131 15.09459890128862
DEKART                  
1 46493U 20068H   23033.55678405  .00004150  00000+0  28394-3 0  9991
2 46493  97.7596 340.8269 0016598 215.3213 144.6909 15.06568914128828
NORBI                   
1 46494U 20068J   23033.60516254  .00004469  00000+0  30229-3 0  9994
2 46494  97.7545 340.9124 0016248 216.7032 143.3082 15.06960870128836
SALSAT                  
1 46495U 20068K   23033.52670469  .00004581  00000+0  31818-3 0  9995
2 46495  97.7558 340.3995 0015096 212.3620 147.6681 15.05973082128791
ICEYE-X7                
1 46496U 20068L   23033.57387209  .00006863  00000+0  52838-3 0  9998
2 46496  97.6379 332.2166 0013919 214.4313 145.5960 15.01902610128585
ICEYE-X6                
1 46497U 20068M   23033.45277239  .00005630  00000+0  44993-3 0  9991
2 46497  97.7909 338.4763 0005558 251.2317 108.8303 15.00627491128561
KEPLER-5 (AMIDALA)      
1 46498U 20068N   23033.36987161  .00012120  00000+0  77039-3 0  9993
2 46498  97.7464 339.9179 0010643 223.6536 136.3845 15.08937969128774
KEPLER-4 (ANTILLES)     
1 46499U 20068P   23033.37947768  .00010831  00000+0  69292-3 0  9993
2 46499  97.7476 339.8424 0010327 225.9563 134.0815 15.08734663128727
LEMUR-2-SLICERS         
1 46500U 20068Q   23033.36712890  .00014107  00000+0  86589-3 0  9999
2 46500  97.7408 340.1074 0010366 217.8856 142.1642 15.10181531128742
LEMUR-2-DAYWZAGOODDAY   
1 46501U 20068R   23033.39539586  .00013500  00000+0  82538-3 0  9998
2 46501  97.7444 340.4380 0008925 229.9066 130.1369 15.10348019128751
LEMUR-2-SUSURRUS        
1 46502U 20068S   23033.43441443  .00016353  00000+0  10038-2 0  9992
2 46502  97.7432 340.1697 0009654 221.6904 138.3589 15.10151265128756
LEMUR-2-NICHOL          
1 46503U 20068T   23033.40276639  .00012694  00000+0  78737-3 0  9998
2 46503  97.7454 340.0677 0008817 236.1939 123.8440 15.09836647128743
NETSAT-4                
1 46504U 20068U   23033.41689056  .00005268  00000+0  37243-3 0  9997
2 46504  97.7456 338.2945 0010009 272.3949  87.6126 15.05283916128617
NETSAT-3                
1 46505U 20068V   23033.37298969  .00005731  00000+0  40547-3 0  9998
2 46505  97.7495 338.1258 0008787 275.9488  84.0734 15.05225329128614
NETSAT-1                
1 46506U 20068W   23033.39866986  .00004394  00000+0  31295-3 0  9995
2 46506  97.7512 338.0618 0007988 293.1179  66.9181 15.05116664128611
NETSAT-2                
1 46507U 20068X   23033.40837895  .00004880  00000+0  34641-3 0  9993
2 46507  97.7541 338.0657 0007021 300.9465  59.1062 15.05192615128566
FLOCK 4V-16             
1 46527U 20061BD  23034.49948600  .00012694  00000+0  45727-3 0  9994
2 46527  97.3730 107.0935 0006112  29.2672 330.8909 15.28684514130064
FLOCK 4V-15             
1 46528U 20061BE  23033.92246906  .00034262  00000+0  12280-2 0  9994
2 46528  97.3710 106.9116 0003487  60.8650 299.2938 15.28646870130367
FLOCK 4V-17             
1 46529U 20061BF  23033.95002331  .00030202  00000+0  10792-2 0  9996
2 46529  97.3682 106.5438 0003385  50.1511 310.0026 15.28774643129564
STARLINK-1644           
1 46532U 20070A   23033.86707773  .00000039  00000+0  21485-4 0  9990
2 46532  53.0498 213.0854 0001190  88.6450 271.4675 15.06392582129089
STARLINK-1648           
1 46533U 20070B   23033.87813096  .00000347  00000+0  42166-4 0  9999
2 46533  53.0535 213.0267 0001225  91.8150 268.2980 15.06398741129088
STARLINK-1659           
1 46534U 20070C   23034.19143943  .00000649  00000+0  62439-4 0  9993
2 46534  53.0504 211.6263 0001911  83.0537 277.0669 15.06409653129132
STARLINK-1663           
1 46535U 20070D   23033.64960542  .00000781  00000+0  71314-4 0  9994
2 46535  53.0525 214.0574 0001133  86.7049 273.4070 15.06402277129043
